start=new Date('2021-11-20T00:00:00.000Z').valueOf();
sats=[{"TIME_SYSTEM":"UTC","ELEMENT_SET_NO":"999","SEMIMAJOR_AXIS":"6925.357","NORAD_CAT_ID":"47397","MEAN_MOTION_DOT":"-0.00000143","RA_OF_ASC_NODE":"275.4938","CLASSIFICATION_TYPE":"U","APOAPSIS":"548.404","OBJECT_NAME":"STARLINK-2119","EPHEMERIS_TYPE":"0","BSTAR":"0.00000929950000","COUNTRY_CODE":"US","LAUNCH_DATE":"2021-01-20","MEAN_ANOMALY":"299.1598","ARG_OF_PERICENTER":"60.9562","OBJECT_ID":"2021-005BA","FILE":"3219209","REV_AT_EPOCH":"4621","TLE_LINE1":"1 47397U 21005BA  21323.38395578 -.00000143  00000-0  92995-5 0  9995","SITE":"AFETR","INCLINATION":"53.0539","CENTER_NAME":"EARTH","PERIAPSIS":"546.041","TLE_LINE2":"2 47397  53.0539 275.4938 0001706  60.9562 299.1598 15.06397198 46212","DECAY_DATE":null,"RCS_SIZE":"LARGE","ECCENTRICITY":"0.00017060","PERIOD":"95.592","GP_ID":"190074118","MEAN_ELEMENT_THEORY":"SGP4","MEAN_MOTION":"15.06397198","REF_FRAME":"TEME","OBJECT_TYPE":"PAYLOAD","EPOCH":"2021-11-19T09:12:53.779392","MEAN_MOTION_DDOT":"0.0000000000000"},{"PERIAPSIS":"545.719","TLE_LINE2":"2 47398  53.0536 245.0075 0002214  59.3955 300.7252 15.06387357 46647","DECAY_DATE":null,"RCS_SIZE":"LARGE","ECCENTRICITY":"0.00022140","GP_ID":"190074369","PERIOD":"95.593","MEAN_MOTION_DDOT":"0.0000000000000","EPOCH":"2021-11-19T11:45:30.555936","OBJECT_TYPE":"PAYLOAD","MEAN_MOTION":"15.06387357","MEAN_ELEMENT_THEORY":"SGP4","REF_FRAME":"TEME","ELEMENT_SET_NO":"999","TIME_SYSTEM":"UTC","SEMIMAJOR_AXIS":"6925.387","NORAD_CAT_ID":"47398","RA_OF_ASC_NODE":"245.0075","MEAN_MOTION_DOT":"0.00000087","OBJECT_NAME":"STARLINK-2120","APOAPSIS":"548.786","CLASSIFICATION_TYPE":"U","LAUNCH_DATE":"2021-01-20","MEAN_ANOMALY":"300.7252","COUNTRY_CODE":"US","BSTAR":"0.00002473300000","EPHEMERIS_TYPE":"0","REV_AT_EPOCH":"4664","FILE":"3219209","OBJECT_ID":"2021-005BB","ARG_OF_PERICENTER":"59.3955","INCLINATION":"53.0536","SITE":"AFETR","TLE_LINE1":"1 47398U 21005BB  21323.48993699  .00000087  00000-0  24733-4 0  9995","CENTER_NAME":"EARTH"},{"INCLINATION":"53.0556","SITE":"AFETR","TLE_LINE1":"1 47399U 21005BC  21323.23742983 -.00000272  00000-0  64447-6 0  9992","CENTER_NAME":"EARTH","COUNTRY_CODE":"US","LAUNCH_DATE":"2021-01-20","MEAN_ANOMALY":"294.4415","BSTAR":"0.00000064447000","EPHEMERIS_TYPE":"0","REV_AT_EPOCH":"4646","FILE":"3219209","OBJECT_ID":"2021-005BC","ARG_OF_PERICENTER":"65.6780","RA_OF_ASC_NODE":"256.1361","MEAN_MOTION_DOT":"-0.00000272","OBJECT_NAME":"STARLINK-2121","CLASSIFICATION_TYPE":"U","APOAPSIS":"548.569","ELEMENT_SET_NO":"999","TIME_SYSTEM":"UTC","SEMIMAJOR_AXIS":"6925.337","NORAD_CAT_ID":"47399","GP_ID":"190075121","PERIOD":"95.592","MEAN_MOTION_DDOT":"0.0000000000000","EPOCH":"2021-11-19T05:41:53.937312","OBJECT_TYPE":"PAYLOAD","MEAN_ELEMENT_THEORY":"SGP4","MEAN_MOTION":"15.06403931","REF_FRAME":"TEME","ECCENTRICITY":"0.00019750","DECAY_DATE":null,"RCS_SIZE":"LARGE","TLE_LINE2":"2 47399  53.0556 256.1361 0001975  65.6780 294.4415 15.06403931 46467","PERIAPSIS":"545.834"},{"REV_AT_EPOCH":"4678","FILE":"3219209","OBJECT_ID":"2021-005BD","ARG_OF_PERICENTER":"77.7947","COUNTRY_CODE":"US","LAUNCH_DATE":"2021-01-20","MEAN_ANOMALY":"282.3238","EPHEMERIS_TYPE":"0","BSTAR":"0.00002533400000","CENTER_NAME":"EARTH","INCLINATION":"53.0543","SITE":"AFETR","TLE_LINE1":"1 47400U 21005BD  21323.48622309  .00000096  00000-0  25334-4 0  9994","SEMIMAJOR_AXIS":"6925.364","NORAD_CAT_ID":"47400","ELEMENT_SET_NO":"999","TIME_SYSTEM":"UTC","OBJECT_NAME":"STARLINK-2122","APOAPSIS":"548.443","CLASSIFICATION_TYPE":"U","RA_OF_ASC_NODE":"235.0151","MEAN_MOTION_DOT":"0.00000096","ECCENTRICITY":"0.00017520","MEAN_MOTION_DDOT":"0.0000000000000","EPOCH":"2021-11-19T11:40:09.674976","OBJECT_TYPE":"PAYLOAD","MEAN_MOTION":"15.06394888","MEAN_ELEMENT_THEORY":"SGP4","REF_FRAME":"TEME","GP_ID":"190075871","PERIOD":"95.592","TLE_LINE2":"2 47400  53.0543 235.0151 0001752  77.7947 282.3238 15.06394888 46785","PERIAPSIS":"546.016","RCS_SIZE":"LARGE","DECAY_DATE":null},{"NORAD_CAT_ID":"47401","SEMIMAJOR_AXIS":"6925.351","TIME_SYSTEM":"UTC","ELEMENT_SET_NO":"999","OBJECT_NAME":"STARLINK-2123","CLASSIFICATION_TYPE":"U","APOAPSIS":"548.455","MEAN_MOTION_DOT":"0.00000436","RA_OF_ASC_NODE":"244.9478","FILE":"3219087","REV_AT_EPOCH":"4726","ARG_OF_PERICENTER":"58.7141","OBJECT_ID":"2021-005BE","BSTAR":"0.00004815600000","EPHEMERIS_TYPE":"0","COUNTRY_CODE":"US","LAUNCH_DATE":"2021-01-20","MEAN_ANOMALY":"301.4023","CENTER_NAME":"EARTH","INCLINATION":"53.0552","TLE_LINE1":"1 47401U 21005BE  21323.50467273  .00000436  00000-0  48156-4 0  9990","SITE":"AFETR","PERIAPSIS":"545.977","TLE_LINE2":"2 47401  53.0552 244.9478 0001789  58.7141 301.4023 15.06399059 47266","RCS_SIZE":"LARGE","DECAY_DATE":null,"ECCENTRICITY":"0.00017890","EPOCH":"2021-11-19T12:06:43.723872","MEAN_MOTION_DDOT":"0.0000000000000","MEAN_ELEMENT_THEORY":"SGP4","MEAN_MOTION":"15.06399059","REF_FRAME":"TEME","OBJECT_TYPE":"PAYLOAD","GP_ID":"190050279","PERIOD":"95.592"},{"APOAPSIS":"548.443","CLASSIFICATION_TYPE":"U","OBJECT_NAME":"STARLINK-2124","MEAN_MOTION_DOT":"-0.00001289","RA_OF_ASC_NODE":"246.0548","SEMIMAJOR_AXIS":"6925.375","NORAD_CAT_ID":"47402","TIME_SYSTEM":"UTC","ELEMENT_SET_NO":"999","CENTER_NAME":"EARTH","TLE_LINE1":"1 47402U 21005BF  21323.25771525 -.00001289  00000-0 -67636-4 0  9994","SITE":"AFETR","INCLINATION":"53.0536","ARG_OF_PERICENTER":"68.1859","OBJECT_ID":"2021-005BF","FILE":"3219209","REV_AT_EPOCH":"4661","BSTAR":"-0.00006763600000","EPHEMERIS_TYPE":"0","COUNTRY_CODE":"US","LAUNCH_DATE":"2021-01-20","MEAN_ANOMALY":"291.9315","RCS_SIZE":"LARGE","DECAY_DATE":null,"PERIAPSIS":"546.038","TLE_LINE2":"2 47402  53.0536 246.0548 0001736  68.1859 291.9315 15.06391287 46613","MEAN_MOTION":"15.06391287","MEAN_ELEMENT_THEORY":"SGP4","REF_FRAME":"TEME","OBJECT_TYPE":"PAYLOAD","EPOCH":"2021-11-19T06:11:06.597600","MEAN_MOTION_DDOT":"0.0000000000000","PERIOD":"95.593","GP_ID":"190074869","ECCENTRICITY":"0.00017360"},{"MEAN_MOTION":"15.06391966","MEAN_ELEMENT_THEORY":"SGP4","REF_FRAME":"TEME","OBJECT_TYPE":"PAYLOAD","EPOCH":"2021-11-19T04:46:11.559360","MEAN_MOTION_DDOT":"0.0000000000000","PERIOD":"95.593","GP_ID":"190075621","ECCENTRICITY":"0.00020020","RCS_SIZE":"LARGE","DECAY_DATE":null,"TLE_LINE2":"2 47403  53.0563 246.3233 0002002  66.4441 293.6759 15.06391966 46607","PERIAPSIS":"545.852","CENTER_NAME":"EARTH","TLE_LINE1":"1 47403U 21005BG  21323.19874490 -.00001470  00000-0 -79839-4 0  9993","SITE":"AFETR","INCLINATION":"53.0563","ARG_OF_PERICENTER":"66.4441","OBJECT_ID":"2021-005BG","FILE":"3219209","REV_AT_EPOCH":"4660","BSTAR":"-0.00007983900000","EPHEMERIS_TYPE":"0","LAUNCH_DATE":"2021-01-20","MEAN_ANOMALY":"293.6759","COUNTRY_CODE":"US","APOAPSIS":"548.625","CLASSIFICATION_TYPE":"U","OBJECT_NAME":"STARLINK-2127","MEAN_MOTION_DOT":"-0.00001470","RA_OF_ASC_NODE":"246.3233","SEMIMAJOR_AXIS":"6925.373","NORAD_CAT_ID":"47403","TIME_SYSTEM":"UTC","ELEMENT_SET_NO":"999"},{"CENTER_NAME":"EARTH","SITE":"AFETR","TLE_LINE1":"1 47404U 21005BH  21323.26140264  .00000245  00000-0  35359-4 0  9993","INCLINATION":"53.0559","OBJECT_ID":"2021-005BH","ARG_OF_PERICENTER":"64.1717","REV_AT_EPOCH":"4661","FILE":"3219209","LAUNCH_DATE":"2021-01-20","MEAN_ANOMALY":"295.9453","COUNTRY_CODE":"US","BSTAR":"0.00003535900000","EPHEMERIS_TYPE":"0","CLASSIFICATION_TYPE":"U","APOAPSIS":"548.445","OBJECT_NAME":"STARLINK-2128","RA_OF_ASC_NODE":"246.0408","MEAN_MOTION_DOT":"0.00000245","NORAD_CAT_ID":"47404","SEMIMAJOR_AXIS":"6925.362","ELEMENT_SET_NO":"999","TIME_SYSTEM":"UTC","OBJECT_TYPE":"PAYLOAD","MEAN_ELEMENT_THEORY":"SGP4","MEAN_MOTION":"15.06395573","REF_FRAME":"TEME","MEAN_MOTION_DDOT":"0.0000000000000","EPOCH":"2021-11-19T06:16:25.188096","PERIOD":"95.592","GP_ID":"190075372","ECCENTRICITY":"0.00017590","RCS_SIZE":"LARGE","DECAY_DATE":null,"TLE_LINE2":"2 47404  53.0559 246.0408 0001759  64.1717 295.9453 15.06395573 46618","PERIAPSIS":"546.009"},{"OBJECT_NAME":"STARLINK-2130","CLASSIFICATION_TYPE":"U","APOAPSIS":"548.371","MEAN_MOTION_DOT":"0.00000623","RA_OF_ASC_NODE":"275.5820","SEMIMAJOR_AXIS":"6925.357","NORAD_CAT_ID":"47405","TIME_SYSTEM":"UTC","ELEMENT_SET_NO":"999","CENTER_NAME":"EARTH","INCLINATION":"53.0413","TLE_LINE1":"1 47405U 21005BJ  21323.37658412  .00000623  00000-0  60724-4 0  9999","SITE":"AFETR","FILE":"3219209","REV_AT_EPOCH":"4620","ARG_OF_PERICENTER":"73.2580","OBJECT_ID":"2021-005BJ","BSTAR":"0.00006072400000","EPHEMERIS_TYPE":"0","LAUNCH_DATE":"2021-01-20","MEAN_ANOMALY":"286.8591","COUNTRY_CODE":"US","RCS_SIZE":"LARGE","DECAY_DATE":null,"PERIAPSIS":"546.074","TLE_LINE2":"2 47405  53.0413 275.5820 0001658  73.2580 286.8591 15.06397122 46209","EPOCH":"2021-11-19T09:02:16.867968","MEAN_MOTION_DDOT":"0.0000000000000","MEAN_MOTION":"15.06397122","REF_FRAME":"TEME","MEAN_ELEMENT_THEORY":"SGP4","OBJECT_TYPE":"PAYLOAD","GP_ID":"190074119","PERIOD":"95.592","ECCENTRICITY":"0.00016580"},{"RCS_SIZE":"LARGE","DECAY_DATE":null,"PERIAPSIS":"545.919","TLE_LINE2":"2 47406  53.0547 245.9774 0001866  74.3002 285.8192 15.06400827 46617","MEAN_MOTION":"15.06400827","MEAN_ELEMENT_THEORY":"SGP4","REF_FRAME":"TEME","OBJECT_TYPE":"PAYLOAD","EPOCH":"2021-11-19T06:32:20.499072","MEAN_MOTION_DDOT":"0.0000000000000","PERIOD":"95.592","GP_ID":"190074370","ECCENTRICITY":"0.00018660","APOAPSIS":"548.503","CLASSIFICATION_TYPE":"U","OBJECT_NAME":"STARLINK-2133","MEAN_MOTION_DOT":"0.00001080","RA_OF_ASC_NODE":"245.9774","NORAD_CAT_ID":"47406","SEMIMAJOR_AXIS":"6925.346","TIME_SYSTEM":"UTC","ELEMENT_SET_NO":"999","CENTER_NAME":"EARTH","TLE_LINE1":"1 47406U 21005BK  21323.27245948  .00001080  00000-0  91390-4 0  9996","SITE":"AFETR","INCLINATION":"53.0547","ARG_OF_PERICENTER":"74.3002","OBJECT_ID":"2021-005BK","FILE":"3219209","REV_AT_EPOCH":"4661","BSTAR":"0.00009139000000","EPHEMERIS_TYPE":"0","LAUNCH_DATE":"2021-01-20","MEAN_ANOMALY":"285.8192","COUNTRY_CODE":"US"}];
